{
  "norad_id": 68495,
  "name": "TRANSPORTER-16 OBJECT CH",
  "history": [
    {
      "epoch": "2026-04-13T22:23:29.260320Z",
      "apogee_km": 602.2092461291741,
      "perigee_km": 599.5683827609892,
      "latitude_deg": 3.606046972286615e-05,
      "longitude_deg": -114.8104762412622,
      "height_km": 605.2113473783054,
      "semi_major_axis_km": 6979.025814445082,
      "eccentricity": 0.0001892,
      "inclination_deg": 97.756,
      "raan_deg": 63.1781,
      "arg_perigee_deg": 193.578,
      "mean_anomaly_deg": 166.5387,
      "mean_motion_rev_day": 14.89054368
    }
  ]
}